{"type": "FeatureCollection", "features": [ {"type": "Feature", "properties": {"norad_id": 66643, "name": "STARLINK-35918", "group": "last-30-days", "lat": 20.98153593529003, "lon": 10.6236133126397, "alt_km": 362.17740851788585, "timestamp": "2025-12-08T13:49:30.578017+00:00", "meta": {"OBJECT_NAME": "STARLINK-35918", "OBJECT_ID": "2025-271AC", "EPOCH": "2025-12-08T06:00:02.999808", "MEAN_MOTION": 15.69408566, "ECCENTRICITY": 0.00010277, "INCLINATION": 53.1591, "RA_OF_ASC_NODE": 208.9387, "ARG_OF_PERICENTER": 73.7179, "MEAN_ANOMALY": 37.4347, "EPHEMERIS_TYPE": 0, "CLASSIFICATION_TYPE": "U", "NORAD_CAT_ID": 66643, "ELEMENT_SET_NO": 999, "REV_AT_EPOCH": 352, "BSTAR": -0.018642938, "MEAN_MOTION_DOT": -0.0197065, "MEAN_MOTION_DDOT": 0}, "tle": {"line1": "1 66643U 25271AC  25342.25003472 -.01970650  00000+0 -18643-1 0  9993", "line2": "2 66643  53.1591 208.9387 0001027  73.7179  37.4347 15.69408566  3520"}}, "geometry": {"type": "Point", "coordinates": [10.6236133126397, 20.98153593529003]}}, {"type": "Feature", "properties": {"norad_id": 66644, "name": "STARLINK-35938", "group": "last-30-days", "lat": 19.506358484998625, "lon": 11.92696865789365, "alt_km": 362.4690807710658, "timestamp": "2025-12-08T13:49:30.578029+00:00", "meta": {"OBJECT_NAME": "STARLINK-35938", "OBJECT_ID": "2025-271AD", "EPOCH": "2025-12-08T06:00:02.999808", "MEAN_MOTION": 15.69401559, "ECCENTRICITY": 9.418e-05, "INCLINATION": 53.1592, "RA_OF_ASC_NODE": 208.9344, "ARG_OF_PERICENTER": 82.4941, "MEAN_ANOMALY": 30.5804, "EPHEMERIS_TYPE": 0, "CLASSIFICATION_TYPE": "U", "NORAD_CAT_ID": 66644, "ELEMENT_SET_NO": 999, "REV_AT_EPOCH": 352, "BSTAR": -0.018562104, "MEAN_MOTION_DOT": -0.01962536, "MEAN_MOTION_DDOT": 0}, "tle": {"line1": "1 66644U 25271AD  25342.25003472 -.01962536  00000+0 -18562-1 0  9998", "line2": "2 66644  53.1592 208.9344 0000941  82.4941  30.5804 15.69401559  3520"}}, "geometry": {"type": "Point", "coordinates": [11.92696865789365, 19.506358484998625]}}, {"type": "Feature", "properties": {"norad_id": 66645, "name": "SHENZHOU-22", "group": "last-30-days", "lat": 24.174068916595143, "lon": -168.57024080509814, "alt_km": 391.89488058239476, "timestamp": "2025-12-08T13:49:30.578042+00:00", "meta": {"OBJECT_NAME": "SHENZHOU-22", "OBJECT_ID": "2025-272A", "EPOCH": "2025-12-08T07:04:12.884448", "MEAN_MOTION": 15.58883062, "ECCENTRICITY": 0.00091533, "INCLINATION": 41.4681, "RA_OF_ASC_NODE": 43.6887, "ARG_OF_PERICENTER": 354.9466, "MEAN_ANOMALY": 5.1278, "EPHEMERIS_TYPE": 0, "CLASSIFICATION_TYPE": "U", "NORAD_CAT_ID": 66645, "ELEMENT_SET_NO": 999, "REV_AT_EPOCH": 26300, "BSTAR": 0.000309658, "MEAN_MOTION_DOT": 0.00024468, "MEAN_MOTION_DDOT": 0}, "tle": {"line1": "1 66645U 25272A   25342.29459357  .00024468  00000+0  30966-3 0  9995", "line2": "2 66645  41.4681  43.6887 0009153 354.9466   5.1278 15.58883062263004"}}, "geometry": {"type": "Point", "coordinates": [-168.57024080509814, 24.174068916595143]}}, {"type": "Feature", "properties": {"norad_id": 66647, "name": "COSMOS 2597 (RODNIK-S 22)", "group": "last-30-days", "lat": -41.584035079151, "lon": 115.748540348114, "alt_km": 1503.3787024427247, "timestamp": "2025-12-08T13:49:30.578059+00:00", "meta": {"OBJECT_NAME": "COSMOS 2597 (RODNIK-S 22)", "OBJECT_ID": "2025-273A", "EPOCH": "2025-12-08T06:49:57.902016", "MEAN_MOTION": 12.41951178, "ECCENTRICITY": 0.0007989, "INCLINATION": 82.4983, "RA_OF_ASC_NODE": 289.2156, "ARG_OF_PERICENTER": 299.7716, "MEAN_ANOMALY": 60.2569, "EPHEMERIS_TYPE": 0, "CLASSIFICATION_TYPE": "U", "NORAD_CAT_ID": 66647, "ELEMENT_SET_NO": 999, "REV_AT_EPOCH": 158, "BSTAR": 0.00014810377, "MEAN_MOTION_DOT": 3e-07, "MEAN_MOTION_DDOT": 0}, "tle": {"line1": "1 66647U 25273A   25342.28469794  .00000030  00000+0  14810-3 0  9992", "line2": "2 66647  82.4983 289.2156 0007989 299.7716  60.2569 12.41951178  1583"}}, "geometry": {"type": "Point", "coordinates": [115.748540348114, -41.584035079151]}}, {"type": "Feature", "properties": {"norad_id": 66648, "name": "COSMOS 2598 (RODNIK-S 23)", "group": "last-30-days", "lat": -60.781175416435104, "lon": 122.65491593975322, "alt_km": 1496.2271768457267, "timestamp": "2025-12-08T13:49:30.578070+00:00", "meta": {"OBJECT_NAME": "COSMOS 2598 (RODNIK-S 23)", "OBJECT_ID": "2025-273B", "EPOCH": "2025-12-08T06:43:57.189792", "MEAN_MOTION": 12.42861554, "ECCENTRICITY": 0.00072511, "INCLINATION": 82.503, "RA_OF_ASC_NODE": 289.2226, "ARG_OF_PERICENTER": 262.0516, "MEAN_ANOMALY": 97.9741, "EPHEMERIS_TYPE": 0, "CLASSIFICATION_TYPE": "U", "NORAD_CAT_ID": 66648, "ELEMENT_SET_NO": 999, "REV_AT_EPOCH": 158, "BSTAR": 8.0317445e-05, "MEAN_MOTION_DOT": 2.1e-07, "MEAN_MOTION_DDOT": 0}, "tle": {"line1": "1 66648U 25273B   25342.28052303  .00000021  00000+0  80317-4 0  9993", "line2": "2 66648  82.5030 289.2226 0007251 262.0516  97.9741 12.42861554  1587"}}, "geometry": {"type": "Point", "coordinates": [122.65491593975322, -60.781175416435104]}}, {"type": "Feature", "properties": {"norad_id": 66649, "name": "COSMOS 2599 (RODNIK-S 24)", "group": "last-30-days", "lat": -28.779545816993277, "lon": 113.19772107173607, "alt_km": 1506.35936817928, "timestamp": "2025-12-08T13:49:30.578080+00:00", "meta": {"OBJECT_NAME": "COSMOS 2599 (RODNIK-S 24)", "OBJECT_ID": "2025-273C", "EPOCH": "2025-12-08T06:54:03.459456", "MEAN_MOTION": 12.41671803, "ECCENTRICITY": 0.0008214, "INCLINATION": 82.5017, "RA_OF_ASC_NODE": 289.2284, "ARG_OF_PERICENTER": 310.1477, "MEAN_ANOMALY": 49.8882, "EPHEMERIS_TYPE": 0, "CLASSIFICATION_TYPE": "U", "NORAD_CAT_ID": 66649, "ELEMENT_SET_NO": 999, "REV_AT_EPOCH": 158, "BSTAR": -1.6150005e-05, "MEAN_MOTION_DOT": 8e-08, "MEAN_MOTION_DDOT": 0}, "tle": {"line1": "1 66649U 25273C   25342.28754004  .00000008  00000+0 -16150-4 0  9991", "line2": "2 66649  82.5017 289.2284 0008214 310.1477  49.8882 12.41671803  1585"}}, "geometry": {"type": "Point", "coordinates": [113.19772107173607, -28.779545816993277]}}, {"type": "Feature", "properties": {"norad_id": 66650, "name": "BEE-1000", "group": "last-30-days", "lat": -81.67040617906122, "lon": 21.59345673261176, "alt_km": 592.9055218873154, "timestamp": "2025-12-08T13:49:30.578090+00:00", "meta": {"OBJECT_NAME": "BEE-1000", "OBJECT_ID": "2025-274A", "EPOCH": "2025-12-08T06:11:29.858208", "MEAN_MOTION": 14.91637179, "ECCENTRICITY": 0.00104423, "INCLINATION": 97.7387, "RA_OF_ASC_NODE": 269.5281, "ARG_OF_PERICENTER": 268.9132, "MEAN_ANOMALY": 91.089, "EPHEMERIS_TYPE": 0, "CLASSIFICATION_TYPE": "U", "NORAD_CAT_ID": 66650, "ELEMENT_SET_NO": 999, "REV_AT_EPOCH": 173, "BSTAR": 0.00026816423, "MEAN_MOTION_DOT": 2.64e-05, "MEAN_MOTION_DDOT": 0}, "tle": {"line1": "1 66650U 25274A   25342.25798447  .00002640  00000+0  26816-3 0  9992", "line2": "2 66650  97.7387 269.5281 0010442 268.9132  91.0890 14.91637179  1737"}}, "geometry": {"type": "Point", "coordinates": [21.59345673261176, -81.67040617906122]}}, {"type": "Feature", "properties": {"norad_id": 66651, "name": "2025-274B", "group": "last-30-days", "lat": -82.25638661115543, "lon": -0.5858939756540789, "alt_km": 592.3753513161346, "timestamp": "2025-12-08T13:49:30.578102+00:00", "meta": {"OBJECT_NAME": "2025-274B", "OBJECT_ID": "2025-274B", "EPOCH": "2025-12-08T06:10:41.320416", "MEAN_MOTION": 14.91743755, "ECCENTRICITY": 0.00107329, "INCLINATION": 97.7382, "RA_OF_ASC_NODE": 269.5282, "ARG_OF_PERICENTER": 268.3779, "MEAN_ANOMALY": 91.6211, "EPHEMERIS_TYPE": 0, "CLASSIFICATION_TYPE": "U", "NORAD_CAT_ID": 66651, "ELEMENT_SET_NO": 999, "REV_AT_EPOCH": 173, "BSTAR": 0.00053798814, "MEAN_MOTION_DOT": 5.37e-05, "MEAN_MOTION_DDOT": 0}, "tle": {"line1": "1 66651U 25274B   25342.25742269  .00005370  00000+0  53799-3 0  9997", "line2": "2 66651  97.7382 269.5282 0010732 268.3779  91.6211 14.91743755  1738"}}, "geometry": {"type": "Point", "coordinates": [-0.5858939756540789, -82.25638661115543]}}, {"type": "Feature", "properties": {"norad_id": 66652, "name": "2025-274C", "group": "last-30-days", "lat": -80.14893489729096, "lon": -38.6066645114941, "alt_km": 592.2055360167196, "timestamp": "2025-12-08T13:49:30.578112+00:00", "meta": {"OBJECT_NAME": "2025-274C", "OBJECT_ID": "2025-274C", "EPOCH": "2025-12-08T06:09:05.991840", "MEAN_MOTION": 14.91865873, "ECCENTRICITY": 0.00104213, "INCLINATION": 97.739, "RA_OF_ASC_NODE": 269.5303, "ARG_OF_PERICENTER": 275.0191, "MEAN_ANOMALY": 84.9839, "EPHEMERIS_TYPE": 0, "CLASSIFICATION_TYPE": "U", "NORAD_CAT_ID": 66652, "ELEMENT_SET_NO": 999, "REV_AT_EPOCH": 173, "BSTAR": 0.00035339447, "MEAN_MOTION_DOT": 3.518e-05, "MEAN_MOTION_DDOT": 0}, "tle": {"line1": "1 66652U 25274C   25342.25631935  .00003518  00000+0  35339-3 0  9997", "line2": "2 66652  97.7390 269.5303 0010421 275.0191  84.9839 14.91865873  1737"}}, "geometry": {"type": "Point", "coordinates": [-38.6066645114941, -80.14893489729096]}}, {"type": "Feature", "properties": {"norad_id": 66653, "name": "2025-274D", "group": "last-30-days", "lat": -79.95616520309679, "lon": -40.00041834311086, "alt_km": 591.6347470427008, "timestamp": "2025-12-08T13:49:30.578122+00:00", "meta": {"OBJECT_NAME": "2025-274D", "OBJECT_ID": "2025-274D", "EPOCH": "2025-12-08T06:09:01.083456", "MEAN_MOTION": 14.91869607, "ECCENTRICITY": 0.00112891, "INCLINATION": 97.7388, "RA_OF_ASC_NODE": 269.53, "ARG_OF_PERICENTER": 270.9102, "MEAN_ANOMALY": 89.0824, "EPHEMERIS_TYPE": 0, "CLASSIFICATION_TYPE": "U", "NORAD_CAT_ID": 66653, "ELEMENT_SET_NO": 999, "REV_AT_EPOCH": 173, "BSTAR": 0.00034800091, "MEAN_MOTION_DOT": 3.464e-05, "MEAN_MOTION_DDOT": 0}, "tle": {"line1": "1 66653U 25274D   25342.25626254  .00003464  00000+0  34800-3 0  9998", "line2": "2 66653  97.7388 269.5300 0011289 270.9102  89.0824 14.91869607  1730"}}, "geometry": {"type": "Point", "coordinates": [-40.00041834311086, -79.95616520309679]}}]}